CTC2_L_00319016-03
1 69765U 23489JR  26037.47793981  .00000000  00000+0  00000-0 0  9994
2 69765  75.0000 180.0000 0000000   0.0000   0.0000 13.69880581    16
CTC2_L_00319016-04
1 69766U 25146DD  26037.47793981  .00000000  00000+0  00000-0 0  9997
2 69766  75.0000 180.0000 0000000   0.0000  90.0000 13.69880581    16
CTC2_L_00319017-01
1 69767U 24653XT  26037.47793981  .00000000  00000+0  00000-0 0  9990
2 69767  75.0000 192.0000 0000000   0.0000 192.0000 13.69880581    13
CTC2_L_00319017-02
1 69768U 23207MB  26037.47793981  .00000000  00000+0  00000-0 0  9995
2 69768  75.0000 192.0000 0000000   0.0000 282.0000 13.69880581    14
CTC2_L_00319017-03
1 69769U 24790LK  26037.47793981  .00000000  00000+0  00000-0 0  9994
2 69769  75.0000 192.0000 0000000   0.0000  12.0000 13.69880581    16
CTC2_L_00319017-04
1 69770U 24369BS  26037.47793981  .00000000  00000+0  00000-0 0  9998
2 69770  75.0000 192.0000 0000000   0.0000 102.0000 13.69880581    18
CTC2_L_00319018-01
1 69771U 22633MM  26037.47793981  .00000000  00000+0  00000-0 0  9991
2 69771  75.0000 204.0000 0000000   0.0000 204.0000 13.69880581    16
CTC2_L_00319018-02
1 69772U 22165QC  26037.47793981  .00000000  00000+0  00000-0 0  9992
2 69772  75.0000 204.0000 0000000   0.0000 294.0000 13.69880581    16
CTC2_L_00319018-03
1 69773U 25973EA  26037.47793981  .00000000  00000+0  00000-0 0  9993
2 69773  75.0000 204.0000 0000000   0.0000  24.0000 13.69880581    18
CTC2_L_00319018-04
1 69774U 25217PO  26037.47793981  .00000000  00000+0  00000-0 0  9995
2 69774  75.0000 204.0000 0000000   0.0000 114.0000 13.69880581    19
CTC2_L_00319019-01
1 69775U 25222RR  26037.47793981  .00000000  00000+0  00000-0 0  9992
2 69775  75.0000 216.0000 0000000   0.0000 216.0000 13.69880581    16
CTC2_L_00319019-02
1 69776U 24712SR  26037.47793981  .00000000  00000+0  00000-0 0  9996
2 69776  75.0000 216.0000 0000000   0.0000 306.0000 13.69880581    17
CTC2_L_00319019-03
1 69777U 25249EL  26037.47793981  .00000000  00000+0  00000-0 0  9993
2 69777  75.0000 216.0000 0000000   0.0000  36.0000 13.69880581    18
CTC2_L_00319019-04
1 69778U 26827X   26037.47793981  .00000000  00000+0  00000-0 0  9997
2 69778  75.0000 216.0000 0000000   0.0000 126.0000 13.69880581    19
CTC2_L_00319020-01
1 69779U 22583LC  26037.47793981  .00000000  00000+0  00000-0 0  9993
2 69779  75.0000 228.0000 0000000   0.0000 228.0000 13.69880581    16
CTC2_L_00319020-02
1 69780U 26173RN  26037.47793981  .00000000  00000+0  00000-0 0  9994
2 69780  75.0000 228.0000 0000000   0.0000 318.0000 13.69880581    18
CTC2_L_00319020-03
1 69781U 23159YE  26037.47793981  .00000000  00000+0  00000-0 0  9996
2 69781  75.0000 228.0000 0000000   0.0000  48.0000 13.69880581    19
CTC2_L_00319020-04
1 69782U 22131JG  26037.47793981  .00000000  00000+0  00000-0 0  9996
2 69782  75.0000 228.0000 0000000   0.0000 138.0000 13.69880581    10
CTC2_L_00319021-01
1 69783U 25690UC  26037.47793981  .00000000  00000+0  00000-0 0  9990
2 69783  75.0000 240.0000 0000000   0.0000 240.0000 13.69880581    19
CTC2_L_00319021-02
1 69784U 22117BH  26037.47793981  .00000000  00000+0  00000-0 0  9992
2 69784  75.0000 240.0000 0000000   0.0000 330.0000 13.69880581    10
CTC2_L_00319021-03
1 69785U 23965DW  26037.47793981  .00000000  00000+0  00000-0 0  9995
2 69785  75.0000 240.0000 0000000   0.0000  60.0000 13.69880581    11
CTC2_L_00319021-04
1 69786U 23120QF  26037.47793981  .00000000  00000+0  00000-0 0  9999
2 69786  75.0000 240.0000 0000000   0.0000 150.0000 13.69880581    12
CTC2_L_00319022-01
1 69787U 23052RF  26037.47793981  .00000000  00000+0  00000-0 0  9994
2 69787  75.0000 252.0000 0000000   0.0000 252.0000 13.69880581    19
CTC2_L_00319022-02
1 69788U 22349JK  26037.47793981  .00000000  00000+0  00000-0 0  9993
2 69788  75.0000 252.0000 0000000   0.0000 342.0000 13.69880581    10
CTC2_L_00319022-03
1 69789U 24552IZ  26037.47793981  .00000000  00000+0  00000-0 0  9992
2 69789  75.0000 252.0000 0000000   0.0000  72.0000 13.69880581    11
CTC2_L_00319022-04
1 69790U 24769OS  26037.47793981  .00000000  00000+0  00000-0 0  9994
2 69790  75.0000 252.0000 0000000   0.0000 162.0000 13.69880581    13
CTC2_L_00319023-01
1 69791U 24200PU  26037.47793981  .00000000  00000+0  00000-0 0  9995
2 69791  75.0000 264.0000 0000000   0.0000 264.0000 13.69880581    10
CTC2_L_00319023-02
1 69792U 25625IX  26037.47793981  .00000000  00000+0  00000-0 0  9998
2 69792  75.0000 264.0000 0000000   0.0000 354.0000 13.69880581    11
CTC2_L_00319023-03
1 69793U 22939PE  26037.47793981  .00000000  00000+0  00000-0 0  9994
2 69793  75.0000 264.0000 0000000   0.0000  84.0000 13.69880581    12
CTC2_L_00319023-04
1 69794U 22299GQ  26037.47793981  .00000000  00000+0  00000-0 0  9994
2 69794  75.0000 264.0000 0000000   0.0000 174.0000 13.69880581    13
CTC2_L_00319024-01
1 69795U 25978ZX  26037.47793981  .00000000  00000+0  00000-0 0  9992
2 69795  75.0000 276.0000 0000000   0.0000 276.0000 13.69880581    10
CTC2_L_00319024-02
1 69796U 26732JK  26037.47793981  .00000000  00000+0  00000-0 0  9992
2 69796  75.0000 276.0000 0000000   0.0000   6.0000 13.69880581    12
CTC2_L_00319024-03
1 69797U 25325YU  26037.47793981  .00000000  00000+0  00000-0 0  9990
2 69797  75.0000 276.0000 0000000   0.0000  96.0000 13.69880581    12
CTC2_L_00319024-04
1 69798U 25864WR  26037.47793981  .00000000  00000+0  00000-0 0  9999
2 69798  75.0000 276.0000 0000000   0.0000 186.0000 13.69880581    13
CTC2_L_00319025-01
1 69799U 22585JN  26037.47793981  .00000000  00000+0  00000-0 0  9997
2 69799  75.0000 288.0000 0000000   0.0000 288.0000 13.69880581    10
CTC2_L_00319025-02
1 69800U 26023QL  26037.47793981  .00000000  00000+0  00000-0 0  9991
2 69800  75.0000 288.0000 0000000   0.0000  18.0000 13.69880581    14
CTC2_L_00319025-03
1 69801U 25459TW  26037.47793981  .00000000  00000+0  00000-0 0  9994
2 69801  75.0000 288.0000 0000000   0.0000 108.0000 13.69880581    15
CTC2_L_00319025-04
1 69802U 22972OK  26037.47793981  .00000000  00000+0  00000-0 0  9992
2 69802  75.0000 288.0000 0000000   0.0000 198.0000 13.69880581    15
CTC2_L_00319026-01
1 69803U 24644LD  26037.47793981  .00000000  00000+0  00000-0 0  9991
2 69803  75.0000 300.0000 0000000   0.0000 300.0000 13.69880581    16
CTC2_L_00319026-02
1 69804U 25382QY  26037.47793981  .00000000  00000+0  00000-0 0  9992
2 69804  75.0000 300.0000 0000000   0.0000  30.0000 13.69880581    17
CTC2_L_00319026-03
1 69805U 24496HR  26037.47793981  .00000000  00000+0  00000-0 0  9998
2 69805  75.0000 300.0000 0000000   0.0000 120.0000 13.69880581    18
CTC2_L_00319026-04
1 69806U 25825EZ  26037.47793981  .00000000  00000+0  00000-0 0  9996
2 69806  75.0000 300.0000 0000000   0.0000 210.0000 13.69880581    19
CTC2_L_00319027-01
1 69807U 22204TV  26037.47793981  .00000000  00000+0  00000-0 0  9995
2 69807  75.0000 312.0000 0000000   0.0000 312.0000 13.69880581    16
CTC2_L_00319027-02
1 69808U 25938MZ  26037.47793981  .00000000  00000+0  00000-0 0  9993
2 69808  75.0000 312.0000 0000000   0.0000  42.0000 13.69880581    17
CTC2_L_00319027-03
1 69809U 23695ZU  26037.47793981  .00000000  00000+0  00000-0 0  9992
2 69809  75.0000 312.0000 0000000   0.0000 132.0000 13.69880581    18
CTC2_L_00319027-04
1 69810U 25546WF  26037.47793981  .00000000  00000+0  00000-0 0  9991
2 69810  75.0000 312.0000 0000000   0.0000 222.0000 13.69880581    10
CTC2_L_00319028-01
1 69811U 23946IF  26037.47793981  .00000000  00000+0  00000-0 0  9994
2 69811  75.0000 324.0000 0000000   0.0000 324.0000 13.69880581    17
CTC2_L_00319028-02
1 69812U 24884PS  26037.47793981  .00000000  00000+0  00000-0 0  9997
2 69812  75.0000 324.0000 0000000   0.0000  54.0000 13.69880581    18
CTC2_L_00319028-03
1 69813U 26029LU  26037.47793981  .00000000  00000+0  00000-0 0  9991
2 69813  75.0000 324.0000 0000000   0.0000 144.0000 13.69880581    19
CTC2_L_00319028-04
1 69814U 22824YJ  26037.47793981  .00000000  00000+0  00000-0 0  9991
2 69814  75.0000 324.0000 0000000   0.0000 234.0000 13.69880581    10
CTC2_L_00319029-01
1 69815U 22337GV  26037.47793981  .00000000  00000+0  00000-0 0  9991
2 69815  75.0000 336.0000 0000000   0.0000 336.0000 13.69880581    17
CTC2_L_00319029-02
1 69816U 22977TN  26037.47793981  .00000000  00000+0  00000-0 0  9992
2 69816  75.0000 336.0000 0000000   0.0000  66.0000 13.69880581    18
CTC2_L_00319029-03
1 69817U 24116FC  26037.47793981  .00000000  00000+0  00000-0 0  9990
2 69817  75.0000 336.0000 0000000   0.0000 156.0000 13.69880581    19
CTC2_L_00319029-04
1 69818U 26859DA  26037.47793981  .00000000  00000+0  00000-0 0  9997
2 69818  75.0000 336.0000 0000000   0.0000 246.0000 13.69880581    10
CTC2_L_00319030-01
1 69819U 23734VS  26037.47793981  .00000000  00000+0  00000-0 0  9997
2 69819  75.0000 348.0000 0000000   0.0000 348.0000 13.69880581    17
CTC2_L_00319030-02
1 69820U 26163XN  26037.47793981  .00000000  00000+0  00000-0 0  9998
2 69820  75.0000 348.0000 0000000   0.0000  78.0000 13.69880581    19
CTC2_L_00319030-03
1 69821U 26841BS  26037.47793981  .00000000  00000+0  00000-0 0  9992
2 69821  75.0000 348.0000 0000000   0.0000 168.0000 13.69880581    10
CTC2_L_00319030-04
1 69822U 24229UR  26037.47793981  .00000000  00000+0  00000-0 0  9991
2 69822  75.0000 348.0000 0000000   0.0000 258.0000 13.69880581    11
